{
  "type": "FeatureCollection",
  "features": [
    {
      "type": "Feature",
      "properties": {
        "norad_id": 43648,
        "name": "BEIDOU-3 M15 (C34)",
        "group": "gnss",
        "lat": -46.52566204273948,
        "lon": 176.24153858420843,
        "alt_km": 21540.08372355029,
        "timestamp": "2025-12-02T10:50:47.516277+00:00",
        "meta_object_name": "BEIDOU-3 M15 (C34)",
        "meta_object_id": "2018-078B",
        "meta_epoch": "2025-12-01T00:21:40.976640",
        "meta_mean_motion": 1.86232,
        "meta_eccentricity": 0.0003569,
        "meta_inclination": 54.2686,
        "meta_ra_of_asc_node": 306.9322,
        "meta_arg_of_pericenter": 17.0419,
        "meta_mean_anomaly": 342.9634,
        "meta_ephemeris_type": 0,
        "meta_classification_type": "U",
        "meta_norad_cat_id": 43648,
        "meta_element_set_no": 999,
        "meta_rev_at_epoch": 4848,
        "meta_bstar": 0,
        "meta_mean_motion_dot": -5.6e-07,
        "meta_mean_motion_ddot": 0,
        "tle_line1": "1 43648U 18078B   25335.01505760 -.00000056  00000+0  00000+0 0  9991",
        "tle_line2": "2 43648  54.2686 306.9322 0003569  17.0419 342.9634  1.86232000 48485"
      },
      "geometry": {
        "type": "Point",
        "coordinates": [
          176.24153858420843,
          -46.52566204273948
        ]
      }
    },
    {
      "type": "Feature",
      "properties": {
        "norad_id": 43683,
        "name": "BEIDOU-3 G1 (C59)",
        "group": "gnss",
        "lat": -2.557740715357436,
        "lon": 14.247212191564348,
        "alt_km": 35793.510234366695,
        "timestamp": "2025-12-02T10:50:47.516295+00:00",
        "meta_object_name": "BEIDOU-3 G1 (C59)",
        "meta_object_id": "2018-085A",
        "meta_epoch": "2025-12-02T04:10:35.246784",
        "meta_mean_motion": 1.00274165,
        "meta_eccentricity": 0.0002115,
        "meta_inclination": 2.5788,
        "meta_ra_of_asc_node": 103.2931,
        "meta_arg_of_pericenter": 61.3809,
        "meta_mean_anomaly": 109.2811,
        "meta_ephemeris_type": 0,
        "meta_classification_type": "U",
        "meta_norad_cat_id": 43683,
        "meta_element_set_no": 999,
        "meta_rev_at_epoch": 2608,
        "meta_bstar": 0,
        "meta_mean_motion_dot": -2.56e-06,
        "meta_mean_motion_ddot": 0,
        "tle_line1": "1 43683U 18085A   25336.17401906 -.00000256  00000+0  00000+0 0  9995",
        "tle_line2": "2 43683   2.5788 103.2931 0002115  61.3809 109.2811  1.00274165 26085"
      },
      "geometry": {
        "type": "Point",
        "coordinates": [
          14.247212191564348,
          -2.557740715357436
        ]
      }
    },
    {
      "type": "Feature",
      "properties": {
        "norad_id": 43687,
        "name": "COSMOS 2529 (757)",
        "group": "gnss",
        "lat": -63.69425098885672,
        "lon": 122.32415028296393,
        "alt_km": 19118.968242523828,
        "timestamp": "2025-12-02T10:50:47.516313+00:00",
        "meta_object_name": "COSMOS 2529 (757)",
        "meta_object_id": "2018-086A",
        "meta_epoch": "2025-12-01T03:41:39.870816",
        "meta_mean_motion": 2.13101897,
        "meta_eccentricity": 0.0007348,
        "meta_inclination": 64.2916,
        "meta_ra_of_asc_node": 199.28,
        "meta_arg_of_pericenter": 254.5997,
        "meta_mean_anomaly": 105.4111,
        "meta_ephemeris_type": 0,
        "meta_classification_type": "U",
        "meta_norad_cat_id": 43687,
        "meta_element_set_no": 999,
        "meta_rev_at_epoch": 5506,
        "meta_bstar": 0,
        "meta_mean_motion_dot": 9.9e-07,
        "meta_mean_motion_ddot": 0,
        "tle_line1": "1 43687U 18086A   25335.15393369  .00000099  00000+0  00000+0 0  9994",
        "tle_line2": "2 43687  64.2916 199.2800 0007348 254.5997 105.4111  2.13101897 55061"
      },
      "geometry": {
        "type": "Point",
        "coordinates": [
          122.32415028296393,
          -63.69425098885672
        ]
      }
    },
    {
      "type": "Feature",
      "properties": {
        "norad_id": 43706,
        "name": "BEIDOU-3 M17 (C36)",
        "group": "gnss",
        "lat": 33.482642150297806,
        "lon": -19.56052751987405,
        "alt_km": 21541.655963145913,
        "timestamp": "2025-12-02T10:50:47.516330+00:00",
        "meta_object_name": "BEIDOU-3 M17 (C36)",
        "meta_object_id": "2018-093A",
        "meta_epoch": "2025-11-30T05:23:59.265600",
        "meta_mean_motion": 1.86228182,
        "meta_eccentricity": 0.00063751,
        "meta_inclination": 54.1727,
        "meta_ra_of_asc_node": 189.0472,
        "meta_arg_of_pericenter": 306.0351,
        "meta_mean_anomaly": 138.1008,
        "meta_ephemeris_type": 0,
        "meta_classification_type": "U",
        "meta_norad_cat_id": 43706,
        "meta_element_set_no": 999,
        "meta_rev_at_epoch": 4783,
        "meta_bstar": 0,
        "meta_mean_motion_dot": 1.11e-06,
        "meta_mean_motion_ddot": 0,
        "tle_line1": "1 43706U 18093A   25334.22499150  .00000111  00000+0  00000+0 0  9991",
        "tle_line2": "2 43706  54.1727 189.0472 0006375 306.0351 138.1008  1.86228182 47839"
      },
      "geometry": {
        "type": "Point",
        "coordinates": [
          -19.56052751987405,
          33.482642150297806
        ]
      }
    },
    {
      "type": "Feature",
      "properties": {
        "norad_id": 43707,
        "name": "BEIDOU-3 M18 (C37)",
        "group": "gnss",
        "lat": -38.40072870903548,
        "lon": 43.897660538651216,
        "alt_km": 21542.196523902985,
        "timestamp": "2025-12-02T10:50:47.516350+00:00",
        "meta_object_name": "BEIDOU-3 M18 (C37)",
        "meta_object_id": "2018-093B",
        "meta_epoch": "2025-12-01T00:50:13.072128",
        "meta_mean_motion": 1.86226416,
        "meta_eccentricity": 0.0006364,
        "meta_inclination": 54.1734,
        "meta_ra_of_asc_node": 189.0115,
        "meta_arg_of_pericenter": 350.6822,
        "meta_mean_anomaly": 9.3993,
        "meta_ephemeris_type": 0,
        "meta_classification_type": "U",
        "meta_norad_cat_id": 43707,
        "meta_element_set_no": 999,
        "meta_rev_at_epoch": 4784,
        "meta_bstar": 0,
        "meta_mean_motion_dot": 1.18e-06,
        "meta_mean_motion_ddot": 0,
        "tle_line1": "1 43707U 18093B   25335.03487352  .00000118  00000+0  00000+0 0  9990",
        "tle_line2": "2 43707  54.1734 189.0115 0006364 350.6822   9.3993  1.86226416 47849"
      },
      "geometry": {
        "type": "Point",
        "coordinates": [
          43.897660538651216,
          -38.40072870903548
        ]
      }
    },
    {
      "type": "Feature",
      "properties": {
        "norad_id": 43873,
        "name": "GPS BIII-1  (PRN 04)",
        "group": "gnss",
        "lat": -55.113585077769876,
        "lon": 20.38533330950951,
        "alt_km": 20174.165424860454,
        "timestamp": "2025-12-02T10:50:47.516370+00:00",
        "meta_object_name": "GPS BIII-1  (PRN 04)",
        "meta_object_id": "2018-109A",
        "meta_epoch": "2025-12-01T14:03:36.800640",
        "meta_mean_motion": 2.00553137,
        "meta_eccentricity": 0.00371823,
        "meta_inclination": 55.5605,
        "meta_ra_of_asc_node": 99.9877,
        "meta_arg_of_pericenter": 194.4831,
        "meta_mean_anomaly": 175.6663,
        "meta_ephemeris_type": 0,
        "meta_classification_type": "U",
        "meta_norad_cat_id": 43873,
        "meta_element_set_no": 999,
        "meta_rev_at_epoch": 5111,
        "meta_bstar": 0,
        "meta_mean_motion_dot": 2.2e-07,
        "meta_mean_motion_ddot": 0,
        "tle_line1": "1 43873U 18109A   25335.58584260  .00000022  00000+0  00000+0 0  9992",
        "tle_line2": "2 43873  55.5605  99.9877 0037182 194.4831 175.6663  2.00553137 51111"
      },
      "geometry": {
        "type": "Point",
        "coordinates": [
          20.38533330950951,
          -55.113585077769876
        ]
      }
    },
    {
      "type": "Feature",
      "properties": {
        "norad_id": 44204,
        "name": "BEIDOU-3 IGSO-1 (C38)",
        "group": "gnss",
        "lat": -41.48297491469305,
        "lon": 6.833180614552921,
        "alt_km": 35793.159597042766,
        "timestamp": "2025-12-02T10:50:47.516388+00:00",
        "meta_object_name": "BEIDOU-3 IGSO-1 (C38)",
        "meta_object_id": "2019-023A",
        "meta_epoch": "2025-11-19T14:15:02.708640",
        "meta_mean_motion": 1.00252177,
        "meta_eccentricity": 0.0026966,
        "meta_inclination": 58.4003,
        "meta_ra_of_asc_node": 39.8168,
        "meta_arg_of_pericenter": 221.2202,
        "meta_mean_anomaly": 126.9723,
        "meta_ephemeris_type": 0,
        "meta_classification_type": "U",
        "meta_norad_cat_id": 44204,
        "meta_element_set_no": 999,
        "meta_rev_at_epoch": 510,
        "meta_bstar": 0,
        "meta_mean_motion_dot": -2.26e-06,
        "meta_mean_motion_ddot": 0,
        "tle_line1": "1 44204U 19023A   25323.59378135 -.00000226  00000+0  00000+0 0  9994",
        "tle_line2": "2 44204  58.4003  39.8168 0026966 221.2202 126.9723  1.00252177  5102"
      },
      "geometry": {
        "type": "Point",
        "coordinates": [
          6.833180614552921,
          -41.48297491469305
        ]
      }
    }
  ]
}